#aV2011  4  4  0  0   .00000000      96 DD+AD WGS84 FIT  NGA
## 1630  86400.00000000   900.00000000 55655  .0000000000000
+   32     1  2  3  4  5  6  7  8  9 10 11 12 13 14 15 16 17
+         18 19 20 21 22 23 24 25 26 27 28 29 30 31 32  0  0
+          0  0  0  0  0  0  0  0  0  0  0  0  0  0  0  0  0
+          0  0  0  0  0  0  0  0  0  0  0  0  0  0  0  0  0
+          0  0  0  0  0  0  0  0  0  0  0  0  0  0  0  0  0
++         0  0  0  0  0  0  0  0  0  0  0  0  0  0  0  0  0
++         0  0  0  0  0  0  0  0  0  0  0  0  0  0  0  0  0
++         0  0  0  0  0  0  0  0  0  0  0  0  0  0  0  0  0
++         0  0  0  0  0  0  0  0  0  0  0  0  0  0  0  0  0
++         0  0  0  0  0  0  0  0  0  0  0  0  0  0  0  0  0
%c cc cc ccc ccc cccc cccc cccc cccc ccccc ccccc ccccc ccccc
%c cc cc ccc ccc cccc cccc cccc cccc ccccc ccccc ccccc ccccc
%f  0.0000000  0.000000000  0.00000000000  0.000000000000000
%f  0.0000000  0.000000000  0.00000000000  0.000000000000000
%i    0    0    0    0      0      0      0      0         0
%i    0    0    0    0      0      0      0      0         0
/*      NGA, ST. LOUIS,MO.                                  
/*   EPHEMERIS COMPUTED FROM  3 DAYS OF DATA                
/* CCCCCCCCCCCCCCCCCCCCCCCCCCCCCCCCCCCCCCCCCCCCCCCCCCCCCCCCC
/* CCCCCCCCCCCCCCCCCCCCCCCCCCCCCCCCCCCCCCCCCCCCCCCCCCCCCCCCC
*  2011  4  4 21  0   .00000000                                                 
P  1   6590.683410 -25639.229114    493.564411   -220.341951                    
V  1   2456.461058   1385.265324  32006.425911      -.026284                    
P  2  10430.068352  21588.374886  11974.195040    328.926524                    
V  2 -12737.352186  -8347.909860  25736.134791       .022287                    
P  3  -5946.222496 -14978.636486 -21518.683068    697.624345                    
V  3  24401.916301 -10360.828494    800.879952       .050897                    
P  4  -2209.090471  17611.780002  19446.702347     79.389902                    
V  4 -19418.367405 -16339.855287  12805.348366       .103547                    
P  5   3156.602664  23385.850667 -12105.002254   -139.679299                    
V  5  -6121.261816  14355.297130  26279.921080      -.058202                    
P  6   -538.811562 -16137.629620 -20898.369507   -259.383496                    
V  6  25782.656000  -8193.828151   5833.457838     -1.149058                    
P  7 -17780.214935   1396.920707 -19745.139477      7.305049                    
V  7 -17240.571864 -18094.963142  14042.400195       .009745                    
P  8 -10406.224855   9993.558286 -22265.296126      7.653116                    
V  8 -18934.347913 -20961.821812  -1087.639517       .000659                    
P  9  21245.057414  14921.196980   5078.138104     71.804639                    
V  9   3824.021751   6384.138731 -31378.185240       .023182                    
P 10  -8206.191564  24942.235475   2066.212654    -70.713606                    
V 10  -2624.899705  -3718.015511  31602.677431      -.010091                    
P 11 -23851.220018 -11952.398080   1579.216013   -140.041783                    
V 11    264.042745  -5309.180557 -29769.465840      -.030456                    
P 12  12850.075038   8778.439359  21576.410966    -14.162810                    
V 12  -7255.344957  26278.048560  -6209.238966       .028193                    
P 13 -26075.111391   5180.500869    308.767382    276.396489                    
V 13    181.599424  -1922.091729  32350.779791      -.014893                    
P 14  16536.690642 -14231.222617  15206.860115    141.898404                    
V 14  18907.083758  -2760.902966 -23513.431068       .023574                    
P 15  19779.563575   6307.649760 -16649.357334   -137.801540                    
V 15 -19598.304872   8108.233723 -20039.838342       .029793                    
P 16   -739.263771 -24145.259069 -10659.229092   -162.759159                    
V 16   5893.316595 -12536.825939  28202.855976      -.027763                    
P 17 -16762.821938  14734.797340  14362.091207    184.266912                    
V 17 -18075.042403   2397.365730 -23998.618107       .001806                    
P 18  15453.261492 -14919.961827 -15073.659984    130.143962                    
V 18  -2235.837482  19997.278569 -22021.853289       .020063                    
P 19 -16429.563991  -9923.065869 -18500.238232   -127.126639                    
V 19  22646.843015  -5967.401366 -16569.467073      -.038610                    
P 20 -15250.828306  -3892.907645  21246.835896     48.848716                    
V 20   5599.021268 -26855.519050   -832.878946       .000893                    
P 21  17722.414283  -2786.819909 -19367.447362   -135.199625                    
V 21  17281.026437  18632.748260  12255.516225      -.026543                    
P 22  11051.226378 -23208.341043  -6303.551198    150.678066                    
V 22   1436.368206   8948.923418 -29750.398142      -.004980                    
P 23 -23677.152840  -2158.737886  12182.136039    315.528937                    
V 23  14240.410875  -6046.505421  26264.451004      -.025651                    
P 24 -21329.790709 -13406.601820   8899.828351    378.973548                    
V 24  -5679.922856  -9970.426549 -28543.680408       .030921                    
P 25  15919.997405  -7039.068341  20041.209371     -1.071701                    
V 25  -4643.550550  25075.542114  12505.400312      -.002504                    
P 26   7709.485647  13375.738976 -22253.322858   -163.640621                    
V 26 -26118.624911   5617.699480  -5423.970536      -.103552                    
P 27  20530.943070  17112.150273    889.674280    252.415888                    
V 27  -1015.988650   1645.538901 -31972.352227       .036522                    
P 28 -12634.744961  21041.709157  -9295.899471     29.381840                    
V 28   1077.464633 -12811.675180 -29124.352971       .024241                    
P 29  25979.028601  -3494.632008   4217.766669    197.450475                    
V 29  -4422.346694   3979.891567  31190.934591       .028583                    
P 30   2811.443420 -26224.131810  -3388.531099    334.476694                    
V 30   3506.634130  -3185.068014  31367.999033       .029533                    
P 31   -396.528683 -18426.951456  19247.015392     62.173656                    
V 31  18014.260636  15945.272147  16012.216249       .050540                    
P 32 -10644.445023 -13722.839175  20487.395758   -228.695932                    
V 32   8872.474370 -23695.331905 -11019.611999      -.074451                    
EOF
